{"type": "FeatureCollection", "features": [ {"type": "Feature", "properties": {"norad_id": 31768, "name": "FENGYUN 1C DEB", "group": "fengyun-1c-debris", "lat": -43.44130631368145, "lon": -130.67728000725876, "alt_km": 658.3087745655912, "timestamp": "2025-12-11T07:02:24.014401+00:00", "meta": {"OBJECT_NAME": "FENGYUN 1C DEB", "OBJECT_ID": "1999-025CFT", "EPOCH": "2025-12-10T04:08:02.023296", "MEAN_MOTION": 14.75991189, "ECCENTRICITY": 0.002638, "INCLINATION": 99.0421, "RA_OF_ASC_NODE": 56.7434, "ARG_OF_PERICENTER": 349.7822, "MEAN_ANOMALY": 40.9149, "EPHEMERIS_TYPE": 0, "CLASSIFICATION_TYPE": "U", "NORAD_CAT_ID": 31768, "ELEMENT_SET_NO": 999, "REV_AT_EPOCH": 96835, "BSTAR": 0.0037376946, "MEAN_MOTION_DOT": 0.00025906, "MEAN_MOTION_DDOT": 0}, "tle": {"line1": "1 31768U 99025CFT 25344.17224564  .00025906  00000+0  37377-2 0  9999", "line2": "2 31768  99.0421  56.7434 0026380 349.7822  40.9149 14.75991189968357"}}, "geometry": {"type": "Point", "coordinates": [-130.67728000725876, -43.44130631368145]}}, {"type": "Feature", "properties": {"norad_id": 31772, "name": "FENGYUN 1C DEB", "group": "fengyun-1c-debris", "lat": -52.54745517588693, "lon": -85.95458286956263, "alt_km": 957.9440595687511, "timestamp": "2025-12-11T07:02:24.014411+00:00", "meta": {"OBJECT_NAME": "FENGYUN 1C DEB", "OBJECT_ID": "1999-025CFX", "EPOCH": "2025-12-10T05:46:54.724224", "MEAN_MOTION": 14.11682469, "ECCENTRICITY": 0.01363, "INCLINATION": 98.4728, "RA_OF_ASC_NODE": 261.8302, "ARG_OF_PERICENTER": 120.9523, "MEAN_ANOMALY": 240.5127, "EPHEMERIS_TYPE": 0, "CLASSIFICATION_TYPE": "U", "NORAD_CAT_ID": 31772, "ELEMENT_SET_NO": 999, "REV_AT_EPOCH": 70848, "BSTAR": 0.0012664, "MEAN_MOTION_DOT": 2.476e-05, "MEAN_MOTION_DDOT": 0}, "tle": {"line1": "1 31772U 99025CFX 25344.24091116  .00002476  00000+0  12664-2 0  9996", "line2": "2 31772  98.4728 261.8302 0136300 120.9523 240.5127 14.11682469708487"}}, "geometry": {"type": "Point", "coordinates": [-85.95458286956263, -52.54745517588693]}}, {"type": "Feature", "properties": {"norad_id": 31773, "name": "FENGYUN 1C DEB", "group": "fengyun-1c-debris", "lat": 62.32964732992082, "lon": -41.42355944411554, "alt_km": 659.5774260883954, "timestamp": "2025-12-11T07:02:24.014421+00:00", "meta": {"OBJECT_NAME": "FENGYUN 1C DEB", "OBJECT_ID": "1999-025CFY", "EPOCH": "2025-12-08T05:22:19.576416", "MEAN_MOTION": 14.72657344, "ECCENTRICITY": 0.00387845, "INCLINATION": 98.9512, "RA_OF_ASC_NODE": 332.6908, "ARG_OF_PERICENTER": 192.9231, "MEAN_ANOMALY": 167.0984, "EPHEMERIS_TYPE": 0, "CLASSIFICATION_TYPE": "U", "NORAD_CAT_ID": 31773, "ELEMENT_SET_NO": 999, "REV_AT_EPOCH": 65108, "BSTAR": 0.0024881377, "MEAN_MOTION_DOT": 0.00016017, "MEAN_MOTION_DDOT": 0}, "tle": {"line1": "1 31773U 99025CFY 25342.22383769  .00016017  00000+0  24881-2 0  9991", "line2": "2 31773  98.9512 332.6908 0038784 192.9231 167.0984 14.72657344651083"}}, "geometry": {"type": "Point", "coordinates": [-41.42355944411554, 62.32964732992082]}}, {"type": "Feature", "properties": {"norad_id": 31776, "name": "FENGYUN 1C DEB", "group": "fengyun-1c-debris", "lat": 60.61620842189854, "lon": 28.513539499422183, "alt_km": 819.6384152642222, "timestamp": "2025-12-11T07:02:24.014431+00:00", "meta": {"OBJECT_NAME": "FENGYUN 1C DEB", "OBJECT_ID": "1999-025CGB", "EPOCH": "2025-12-10T10:30:15.554592", "MEAN_MOTION": 14.18530208, "ECCENTRICITY": 0.00545226, "INCLINATION": 99.0756, "RA_OF_ASC_NODE": 44.129, "ARG_OF_PERICENTER": 341.0208, "MEAN_ANOMALY": 33.1923, "EPHEMERIS_TYPE": 0, "CLASSIFICATION_TYPE": "U", "NORAD_CAT_ID": 31776, "ELEMENT_SET_NO": 999, "REV_AT_EPOCH": 94848, "BSTAR": 0.0019236943, "MEAN_MOTION_DOT": 3.993e-05, "MEAN_MOTION_DDOT": 0}, "tle": {"line1": "1 31776U 99025CGB 25344.43768003  .00003993  00000+0  19237-2 0  9995", "line2": "2 31776  99.0756  44.1290 0054522 341.0208  33.1923 14.18530208948484"}}, "geometry": {"type": "Point", "coordinates": [28.513539499422183, 60.61620842189854]}}, {"type": "Feature", "properties": {"norad_id": 31779, "name": "FENGYUN 1C DEB", "group": "fengyun-1c-debris", "lat": -63.80689527609267, "lon": 65.67975199038315, "alt_km": 677.9398018190859, "timestamp": "2025-12-11T07:02:24.014441+00:00", "meta": {"OBJECT_NAME": "FENGYUN 1C DEB", "OBJECT_ID": "1999-025CGE", "EPOCH": "2025-12-09T12:16:05.170944", "MEAN_MOTION": 14.41586265, "ECCENTRICITY": 0.021314, "INCLINATION": 99.298, "RA_OF_ASC_NODE": 263.1933, "ARG_OF_PERICENTER": 192.3913, "MEAN_ANOMALY": 167.1985, "EPHEMERIS_TYPE": 0, "CLASSIFICATION_TYPE": "U", "NORAD_CAT_ID": 31779, "ELEMENT_SET_NO": 999, "REV_AT_EPOCH": 96963, "BSTAR": 0.00045665, "MEAN_MOTION_DOT": 1.887e-05, "MEAN_MOTION_DDOT": 0}, "tle": {"line1": "1 31779U 99025CGE 25343.51117096  .00001887  00000+0  45665-3 0  9991", "line2": "2 31779  99.2980 263.1933 0213140 192.3913 167.1985 14.41586265969634"}}, "geometry": {"type": "Point", "coordinates": [65.67975199038315, -63.80689527609267]}}, {"type": "Feature", "properties": {"norad_id": 31780, "name": "FENGYUN 1C DEB", "group": "fengyun-1c-debris", "lat": 57.537632335167636, "lon": 122.82305623926958, "alt_km": 550.755252547784, "timestamp": "2025-12-11T07:02:24.014451+00:00", "meta": {"OBJECT_NAME": "FENGYUN 1C DEB", "OBJECT_ID": "1999-025CGF", "EPOCH": "2025-12-10T20:58:32.443104", "MEAN_MOTION": 14.69527931, "ECCENTRICITY": 0.01508957, "INCLINATION": 99.2859, "RA_OF_ASC_NODE": 137.2501, "ARG_OF_PERICENTER": 58.933, "MEAN_ANOMALY": 302.6584, "EPHEMERIS_TYPE": 0, "CLASSIFICATION_TYPE": "U", "NORAD_CAT_ID": 31780, "ELEMENT_SET_NO": 999, "REV_AT_EPOCH": 98470, "BSTAR": 0.0004299152, "MEAN_MOTION_DOT": 2.967e-05, "MEAN_MOTION_DDOT": 0}, "tle": {"line1": "1 31780U 99025CGF 25344.87398661  .00002967  00000+0  42992-3 0  9992", "line2": "2 31780  99.2859 137.2501 0150895  58.9330 302.6584 14.69527931984701"}}, "geometry": {"type": "Point", "coordinates": [122.82305623926958, 57.537632335167636]}}, {"type": "Feature", "properties": {"norad_id": 31781, "name": "FENGYUN 1C DEB", "group": "fengyun-1c-debris", "lat": 57.9894706279363, "lon": -8.363474017965308, "alt_km": 978.8927461861094, "timestamp": "2025-12-11T07:02:24.014461+00:00", "meta": {"OBJECT_NAME": "FENGYUN 1C DEB", "OBJECT_ID": "1999-025CGG", "EPOCH": "2025-12-09T06:52:06.193920", "MEAN_MOTION": 14.12885604, "ECCENTRICITY": 0.0203697, "INCLINATION": 99.4979, "RA_OF_ASC_NODE": 153.9738, "ARG_OF_PERICENTER": 283.3787, "MEAN_ANOMALY": 74.4748, "EPHEMERIS_TYPE": 0, "CLASSIFICATION_TYPE": "U", "NORAD_CAT_ID": 31781, "ELEMENT_SET_NO": 999, "REV_AT_EPOCH": 68299, "BSTAR": 0.004746, "MEAN_MOTION_DOT": 0.0001072, "MEAN_MOTION_DDOT": 0}, "tle": {"line1": "1 31781U 99025CGG 25343.28618280  .00010720  00000+0  47460-2 0  9999", "line2": "2 31781  99.4979 153.9738 0203697 283.3787  74.4748 14.12885604682997"}}, "geometry": {"type": "Point", "coordinates": [-8.363474017965308, 57.9894706279363]}}, {"type": "Feature", "properties": {"norad_id": 31782, "name": "FENGYUN 1C DEB", "group": "fengyun-1c-debris", "lat": 74.64370969738333, "lon": 1.2420126698933327, "alt_km": 774.5005066238109, "timestamp": "2025-12-11T07:02:24.014471+00:00", "meta": {"OBJECT_NAME": "FENGYUN 1C DEB", "OBJECT_ID": "1999-025CGH", "EPOCH": "2025-12-08T16:46:19.717248", "MEAN_MOTION": 14.36221911, "ECCENTRICITY": 0.00796709, "INCLINATION": 98.9039, "RA_OF_ASC_NODE": 143.7533, "ARG_OF_PERICENTER": 8.9177, "MEAN_ANOMALY": 5.7329, "EPHEMERIS_TYPE": 0, "CLASSIFICATION_TYPE": "U", "NORAD_CAT_ID": 31782, "ELEMENT_SET_NO": 999, "REV_AT_EPOCH": 96633, "BSTAR": 0.0006706212, "MEAN_MOTION_DOT": 1.982e-05, "MEAN_MOTION_DDOT": 0}, "tle": {"line1": "1 31782U 99025CGH 25342.69883932  .00001982  00000+0  67062-3 0  9993", "line2": "2 31782  98.9039 143.7533 0079670   8.9177   5.7329 14.36221911966331"}}, "geometry": {"type": "Point", "coordinates": [1.2420126698933327, 74.64370969738333]}}, {"type": "Feature", "properties": {"norad_id": 31783, "name": "FENGYUN 1C DEB", "group": "fengyun-1c-debris", "lat": 35.377037119728115, "lon": -179.8109526893164, "alt_km": 860.2251257268745, "timestamp": "2025-12-11T07:02:24.014481+00:00", "meta": {"OBJECT_NAME": "FENGYUN 1C DEB", "OBJECT_ID": "1999-025CGJ", "EPOCH": "2025-12-09T19:23:45.829248", "MEAN_MOTION": 14.08820049, "ECCENTRICITY": 0.01044162, "INCLINATION": 98.6045, "RA_OF_ASC_NODE": 352.5993, "ARG_OF_PERICENTER": 58.2322, "MEAN_ANOMALY": 116.4574, "EPHEMERIS_TYPE": 0, "CLASSIFICATION_TYPE": "U", "NORAD_CAT_ID": 31783, "ELEMENT_SET_NO": 999, "REV_AT_EPOCH": 89179, "BSTAR": 0.00080306341, "MEAN_MOTION_DOT": 1.417e-05, "MEAN_MOTION_DDOT": 0}, "tle": {"line1": "1 31783U 99025CGJ 25343.80816932  .00001417  00000+0  80306-3 0  9993", "line2": "2 31783  98.6045 352.5993 0104416  58.2322 116.4574 14.08820049891798"}}, "geometry": {"type": "Point", "coordinates": [-179.8109526893164, 35.377037119728115]}}, {"type": "Feature", "properties": {"norad_id": 31788, "name": "FENGYUN 1C DEB", "group": "fengyun-1c-debris", "lat": 42.68762572050698, "lon": -40.22689404338609, "alt_km": 838.149444297379, "timestamp": "2025-12-11T07:02:24.014491+00:00", "meta": {"OBJECT_NAME": "FENGYUN 1C DEB", "OBJECT_ID": "1999-025CGP", "EPOCH": "2025-12-10T16:12:42.679872", "MEAN_MOTION": 13.45072095, "ECCENTRICITY": 0.04628529, "INCLINATION": 102.5562, "RA_OF_ASC_NODE": 127.1384, "ARG_OF_PERICENTER": 91.3638, "MEAN_ANOMALY": 290.4566, "EPHEMERIS_TYPE": 0, "CLASSIFICATION_TYPE": "U", "NORAD_CAT_ID": 31788, "ELEMENT_SET_NO": 999, "REV_AT_EPOCH": 90577, "BSTAR": 0.003460025, "MEAN_MOTION_DOT": 3.836e-05, "MEAN_MOTION_DDOT": 0}, "tle": {"line1": "1 31788U 99025CGP 25344.67549398  .00003836  00000+0  34600-2 0  9995", "line2": "2 31788 102.5562 127.1384 0462852  91.3638 290.4566 13.45072095905779"}}, "geometry": {"type": "Point", "coordinates": [-40.22689404338609, 42.68762572050698]}}]}